{
"type": "FeatureCollection",
"name": "boundary",
"crs": { "type": "name", "properties": { "name": "urn:ogc:def:crs:OGC:1.3:CRS84" } },
"features": [
{ "type": "Feature", "properties": { }, "geometry": { "type": "Polygon", "coordinates": [ [ [ 127.139952, 37.5085171 ], [ 127.1400141, 37.5085154 ], [ 127.1401166, 37.5084397 ], [ 127.140208, 37.5083685 ], [ 127.1403294, 37.5082754 ], [ 127.1403875, 37.5080933 ], [ 127.1403879, 37.5080162 ], [ 127.1403594, 37.5079446 ], [ 127.1403162, 37.5078219 ], [ 127.1403479, 37.5077359 ], [ 127.1405145, 37.50763 ], [ 127.1405448, 37.5076302 ], [ 127.1406902, 37.5075773 ], [ 127.1407707, 37.5075253 ], [ 127.1409003, 37.5074134 ], [ 127.1409353, 37.507374 ], [ 127.1411379, 37.5071573 ], [ 127.1412529, 37.5070722 ], [ 127.1412648, 37.507058 ], [ 127.1413565, 37.5069487 ], [ 127.1414506, 37.5068238 ], [ 127.1414848, 37.5067782 ], [ 127.1415158, 37.506711 ], [ 127.1414198, 37.5066183 ], [ 127.1413046, 37.5064765 ], [ 127.1412851, 37.5064525 ], [ 127.1412668, 37.5064301 ], [ 127.1411433, 37.5062924 ], [ 127.1409876, 37.5061584 ], [ 127.1408056, 37.5059843 ], [ 127.1408251, 37.5059578 ], [ 127.1409527, 37.5057893 ], [ 127.1410372, 37.5056475 ], [ 127.1411768, 37.5054119 ], [ 127.1416909, 37.5052661 ], [ 127.1417957, 37.5052557 ], [ 127.1420684, 37.5052085 ], [ 127.142185, 37.505173 ], [ 127.1422501, 37.5050729 ], [ 127.1422858, 37.5049958 ], [ 127.1429873, 37.5047319 ], [ 127.1431328, 37.5046726 ], [ 127.1433691, 37.504574 ], [ 127.1434903, 37.5045235 ], [ 127.1435671, 37.5044914 ], [ 127.143694, 37.5045052 ], [ 127.1437387, 37.5045101 ], [ 127.1438301, 37.5045201 ], [ 127.1440686, 37.5045459 ], [ 127.1442394, 37.5045648 ], [ 127.1442465, 37.5045656 ], [ 127.1443912, 37.504417 ], [ 127.1445106, 37.5042924 ], [ 127.1446305, 37.5042484 ], [ 127.1446675, 37.5042348 ], [ 127.1446872, 37.5042274 ], [ 127.1447277, 37.5042125 ], [ 127.1449367, 37.504136 ], [ 127.1449882, 37.5041168 ], [ 127.1450294, 37.5040645 ], [ 127.1451012, 37.5039715 ], [ 127.1451852, 37.5038653 ], [ 127.1452673, 37.5037609 ], [ 127.1452461, 37.5036469 ], [ 127.1453124, 37.5035654 ], [ 127.1455303, 37.5033073 ], [ 127.1461099, 37.5032326 ], [ 127.1464072, 37.5032239 ], [ 127.1464461, 37.5032296 ], [ 127.1468751, 37.5032631 ], [ 127.1470818, 37.5033113 ], [ 127.1472428, 37.5033606 ], [ 127.1472596, 37.5033658 ], [ 127.1475343, 37.5032868 ], [ 127.1476973, 37.5032399 ], [ 127.1477163, 37.5032338 ], [ 127.1477306, 37.5032445 ], [ 127.1477628, 37.503268 ], [ 127.147894, 37.5033951 ], [ 127.1480349, 37.5035056 ], [ 127.1482552, 37.5035714 ], [ 127.1484957, 37.5036406 ], [ 127.1485433, 37.5036548 ], [ 127.1487048, 37.5037732 ], [ 127.1489082, 37.5038893 ], [ 127.1490305, 37.5039608 ], [ 127.1490774, 37.5039927 ], [ 127.1492337, 37.5040989 ], [ 127.1493802, 37.5041985 ], [ 127.1500419, 37.5045808 ], [ 127.1502631, 37.5046783 ], [ 127.1503296, 37.5046014 ], [ 127.1504806, 37.5044268 ], [ 127.1505991, 37.5042896 ], [ 127.1508776, 37.5040473 ], [ 127.1510478, 37.5038992 ], [ 127.1515348, 37.5034755 ], [ 127.1516928, 37.5033381 ], [ 127.1517339, 37.5033954 ], [ 127.1517836, 37.5034647 ], [ 127.1517361, 37.5033946 ], [ 127.1517094, 37.5033553 ], [ 127.1521336, 37.5029854 ], [ 127.1523132, 37.5030063 ], [ 127.1525644, 37.5031173 ], [ 127.1528308, 37.5030698 ], [ 127.1532462, 37.5027004 ], [ 127.1539945, 37.50267 ], [ 127.1557029, 37.5021533 ], [ 127.1565033, 37.5019058 ], [ 127.1576598, 37.503169 ], [ 127.1588362, 37.5023794 ], [ 127.1589994, 37.5019943 ], [ 127.1590266, 37.5019301 ], [ 127.1591026, 37.5018113 ], [ 127.1593765, 37.501383 ], [ 127.1604636, 37.5011252 ], [ 127.1607319, 37.5008281 ], [ 127.160966, 37.5006055 ], [ 127.1611756, 37.5004431 ], [ 127.1612884, 37.5002683 ], [ 127.1613586, 37.5002442 ], [ 127.1613619, 37.5001465 ], [ 127.161439, 37.4999661 ], [ 127.161476, 37.4999661 ], [ 127.1614744, 37.4999705 ], [ 127.1615088, 37.4999591 ], [ 127.161477, 37.4999695 ], [ 127.161489, 37.4999302 ], [ 127.1614903, 37.4997997 ], [ 127.1614579, 37.4997082 ], [ 127.1614229, 37.4997104 ], [ 127.1614165, 37.4997108 ], [ 127.1613883, 37.4996309 ], [ 127.1613552, 37.4995369 ], [ 127.1612445, 37.499384 ], [ 127.1610725, 37.4992519 ], [ 127.161027, 37.4992329 ], [ 127.1610092, 37.4991983 ], [ 127.1609849, 37.4991075 ], [ 127.1609787, 37.499069 ], [ 127.1609697, 37.4990217 ], [ 127.1608903, 37.4988483 ], [ 127.1607381, 37.498648 ], [ 127.1605936, 37.4983691 ], [ 127.160572, 37.4982118 ], [ 127.160559, 37.498096 ], [ 127.1605726, 37.4979848 ], [ 127.1605956, 37.4978875 ], [ 127.1606215, 37.4977909 ], [ 127.1605901, 37.4976677 ], [ 127.160571, 37.4975605 ], [ 127.1604875, 37.4974402 ], [ 127.1603642, 37.4973467 ], [ 127.1603641, 37.4973467 ], [ 127.1602814, 37.4972488 ], [ 127.1602685, 37.4972335 ], [ 127.1600997, 37.4971411 ], [ 127.1599953, 37.4970672 ], [ 127.1597784, 37.4968223 ], [ 127.1597575, 37.4966113 ], [ 127.1597407, 37.4965463 ], [ 127.1597946, 37.4963609 ], [ 127.1598235, 37.496235 ], [ 127.1598593, 37.4961502 ], [ 127.1598394, 37.496021 ], [ 127.1598456, 37.4959748 ], [ 127.1598807, 37.4958119 ], [ 127.1598926, 37.4957754 ], [ 127.1598709, 37.4956853 ], [ 127.1599051, 37.4955823 ], [ 127.159984, 37.4954277 ], [ 127.1599718, 37.4952849 ], [ 127.1599836, 37.4952245 ], [ 127.159986, 37.4951827 ], [ 127.1599789, 37.4950549 ], [ 127.1600218, 37.4947182 ], [ 127.1600312, 37.4943902 ], [ 127.1599034, 37.4941315 ], [ 127.1598134, 37.4939309 ], [ 127.1597942, 37.4938324 ], [ 127.1597576, 37.4936881 ], [ 127.1597475, 37.4936483 ], [ 127.1597404, 37.4936239 ], [ 127.1597365, 37.4936105 ], [ 127.1597273, 37.4935786 ], [ 127.1597156, 37.4935547 ], [ 127.1596599, 37.4934415 ], [ 127.1595171, 37.4932799 ], [ 127.1592718, 37.4931082 ], [ 127.1592596, 37.493102 ], [ 127.159187, 37.4930654 ], [ 127.1590926, 37.4929751 ], [ 127.1590128, 37.4929003 ], [ 127.1589853, 37.4928642 ], [ 127.1589029, 37.4927562 ], [ 127.158814, 37.4926402 ], [ 127.1586499, 37.4924261 ], [ 127.158568, 37.4922577 ], [ 127.158501, 37.4920826 ], [ 127.1584706, 37.4920427 ], [ 127.1584592, 37.4919733 ], [ 127.1584769, 37.4919484 ], [ 127.1583665, 37.4916233 ], [ 127.1583263, 37.4914025 ], [ 127.1582675, 37.4911536 ], [ 127.1582775, 37.4910283 ], [ 127.1582778, 37.4910239 ], [ 127.1582952, 37.4907867 ], [ 127.1582606, 37.4906365 ], [ 127.1581845, 37.4905437 ], [ 127.1581722, 37.4905321 ], [ 127.1580873, 37.4904639 ], [ 127.1580701, 37.49045 ], [ 127.1579763, 37.4903743 ], [ 127.1579735, 37.4903498 ], [ 127.1579654, 37.4903618 ], [ 127.1578272, 37.4903024 ], [ 127.1576962, 37.4902157 ], [ 127.157672, 37.4901989 ], [ 127.1575182, 37.490092 ], [ 127.1574565, 37.4900447 ], [ 127.1573861, 37.4899925 ], [ 127.1572821, 37.4899505 ], [ 127.1573166, 37.489949 ], [ 127.1573242, 37.4899509 ], [ 127.1573564, 37.489962 ], [ 127.1575904, 37.4899093 ], [ 127.1578817, 37.4898959 ], [ 127.157918, 37.4898942 ], [ 127.1580749, 37.4898944 ], [ 127.1581386, 37.4898948 ], [ 127.1581657, 37.4898949 ], [ 127.1582907, 37.4898944 ], [ 127.158291, 37.4898944 ], [ 127.1583218, 37.4898945 ], [ 127.1583819, 37.4898947 ], [ 127.1584058, 37.4898368 ], [ 127.1584089, 37.489812 ], [ 127.1584278, 37.4898146 ], [ 127.158432, 37.4898062 ], [ 127.1584482, 37.4897751 ], [ 127.1584634, 37.4897432 ], [ 127.1584808, 37.4897199 ], [ 127.1585233, 37.489672 ], [ 127.1584855, 37.4896494 ], [ 127.1584669, 37.4896379 ], [ 127.1584233, 37.4896076 ], [ 127.1583845, 37.4895711 ], [ 127.1583504, 37.4895524 ], [ 127.1578179, 37.4892608 ], [ 127.1574717, 37.4890712 ], [ 127.1572325, 37.4889401 ], [ 127.1572102, 37.4889259 ], [ 127.1570349, 37.4888101 ], [ 127.1569155, 37.4887447 ], [ 127.1568819, 37.4887263 ], [ 127.1566112, 37.488578 ], [ 127.1564127, 37.4884912 ], [ 127.1563216, 37.4884413 ], [ 127.1562012, 37.4883753 ], [ 127.1558551, 37.4881857 ], [ 127.1555574, 37.4880227 ], [ 127.1554732, 37.4879766 ], [ 127.1553422, 37.4879376 ], [ 127.1537414, 37.4870608 ], [ 127.1535872, 37.4869216 ], [ 127.1531627, 37.4866891 ], [ 127.1529635, 37.4866019 ], [ 127.1524022, 37.4862944 ], [ 127.1520562, 37.4861048 ], [ 127.1516744, 37.4858956 ], [ 127.1515434, 37.4858567 ], [ 127.1504085, 37.485235 ], [ 127.1503694, 37.4852087 ], [ 127.1501225, 37.485042 ], [ 127.149922, 37.4849067 ], [ 127.1494663, 37.4844278 ], [ 127.1494127, 37.4843518 ], [ 127.1492701, 37.4841417 ], [ 127.1491296, 37.4839418 ], [ 127.1486814, 37.4840498 ], [ 127.148567, 37.4838726 ], [ 127.1483963, 37.4836209 ], [ 127.1482255, 37.4833692 ], [ 127.1482228, 37.4833606 ], [ 127.1481908, 37.4832612 ], [ 127.1481059, 37.4831359 ], [ 127.1479561, 37.4829151 ], [ 127.1478895, 37.482817 ], [ 127.1478637, 37.4827789 ], [ 127.1478149, 37.4827015 ], [ 127.1477691, 37.482623 ], [ 127.1477262, 37.4825435 ], [ 127.1476863, 37.4824629 ], [ 127.1476496, 37.4823814 ], [ 127.1476159, 37.482299 ], [ 127.1475855, 37.4822159 ], [ 127.1475581, 37.4821321 ], [ 127.1475339, 37.4820477 ], [ 127.147513, 37.4819627 ], [ 127.1475041, 37.48192 ], [ 127.1475018, 37.4819094 ], [ 127.1474898, 37.4818459 ], [ 127.1474871, 37.481829 ], [ 127.1474795, 37.4817822 ], [ 127.1474784, 37.4817741 ], [ 127.147471, 37.4817184 ], [ 127.1474643, 37.4816544 ], [ 127.1474594, 37.4815904 ], [ 127.1473909, 37.4804865 ], [ 127.1473427, 37.4797109 ], [ 127.1472825, 37.4787405 ], [ 127.1472419, 37.4786339 ], [ 127.147218, 37.4782492 ], [ 127.1471933, 37.4778512 ], [ 127.1471587, 37.4772959 ], [ 127.1471449, 37.4772227 ], [ 127.1469628, 37.4772299 ], [ 127.1443709, 37.477332 ], [ 127.1443332, 37.4767235 ], [ 127.1443318, 37.4766999 ], [ 127.1443272, 37.4766526 ], [ 127.1443209, 37.4766055 ], [ 127.1443128, 37.4765586 ], [ 127.1443029, 37.4765118 ], [ 127.1442913, 37.4764654 ], [ 127.1442779, 37.4764193 ], [ 127.1442629, 37.4763734 ], [ 127.1442461, 37.476328 ], [ 127.1442276, 37.476283 ], [ 127.1442073, 37.4762384 ], [ 127.1441854, 37.4761944 ], [ 127.144162, 37.4761509 ], [ 127.1441369, 37.476108 ], [ 127.1441235, 37.4760868 ], [ 127.1439162, 37.4757554 ], [ 127.1437382, 37.4754709 ], [ 127.1437173, 37.4754333 ], [ 127.1436979, 37.4753953 ], [ 127.1436801, 37.4753568 ], [ 127.1436637, 37.4753178 ], [ 127.1436491, 37.4752784 ], [ 127.143636, 37.4752387 ], [ 127.1436245, 37.4751986 ], [ 127.1436146, 37.4751584 ], [ 127.1436064, 37.4751178 ], [ 127.1435998, 37.4750771 ], [ 127.1435948, 37.4750362 ], [ 127.1435916, 37.4749952 ], [ 127.1435548, 37.4744067 ], [ 127.1435527, 37.474373 ], [ 127.1435288, 37.4739845 ], [ 127.1435255, 37.4739312 ], [ 127.1436066, 37.4739281 ], [ 127.1457447, 37.4738439 ], [ 127.1459717, 37.4738475 ], [ 127.1462649, 37.4738364 ], [ 127.1463927, 37.4738055 ], [ 127.1467486, 37.4737896 ], [ 127.1468633, 37.4737845 ], [ 127.1469399, 37.4737897 ], [ 127.1474351, 37.4738229 ], [ 127.1475154, 37.4738283 ], [ 127.147572, 37.473826 ], [ 127.1487725, 37.4737787 ], [ 127.1489061, 37.4737463 ], [ 127.1493572, 37.4737283 ], [ 127.1496609, 37.4737166 ], [ 127.1502854, 37.4736915 ], [ 127.150707, 37.473702 ], [ 127.1536002, 37.4735878 ], [ 127.1537342, 37.4735557 ], [ 127.1537578, 37.4735548 ], [ 127.1542144, 37.4735367 ], [ 127.1546001, 37.4735216 ], [ 127.1544948, 37.4718367 ], [ 127.1544932, 37.4718183 ], [ 127.1544901, 37.4717825 ], [ 127.1544886, 37.4717682 ], [ 127.1545134, 37.4717672 ], [ 127.1545348, 37.4717652 ], [ 127.154556, 37.4717621 ], [ 127.1548729, 37.4717033 ], [ 127.1548895, 37.4717008 ], [ 127.1549061, 37.4716992 ], [ 127.1549229, 37.4716984 ], [ 127.1549398, 37.4716982 ], [ 127.1549566, 37.471699 ], [ 127.1549734, 37.4717006 ], [ 127.1549873, 37.4717022 ], [ 127.1550152, 37.4717041 ], [ 127.1550432, 37.4717048 ], [ 127.1550714, 37.4717041 ], [ 127.1550993, 37.4717021 ], [ 127.1551271, 37.4716988 ], [ 127.1551546, 37.4716942 ], [ 127.1551817, 37.4716884 ], [ 127.1552083, 37.4716812 ], [ 127.1552343, 37.4716728 ], [ 127.1552597, 37.4716632 ], [ 127.1552844, 37.4716524 ], [ 127.1553081, 37.4716405 ], [ 127.155436, 37.4715657 ], [ 127.1554531, 37.4715567 ], [ 127.1554649, 37.4715513 ], [ 127.1554771, 37.4715466 ], [ 127.1554897, 37.4715425 ], [ 127.1555025, 37.4715389 ], [ 127.1555156, 37.471536 ], [ 127.1555289, 37.4715337 ], [ 127.1555423, 37.471532 ], [ 127.1555559, 37.4715311 ], [ 127.1555694, 37.4715307 ], [ 127.1555831, 37.4715311 ], [ 127.1555966, 37.471532 ], [ 127.1559726, 37.4715678 ], [ 127.1559844, 37.4715688 ], [ 127.156008, 37.4715702 ], [ 127.1560317, 37.4715706 ], [ 127.1560553, 37.4715702 ], [ 127.1560789, 37.4715688 ], [ 127.1561024, 37.4715666 ], [ 127.1561258, 37.4715635 ], [ 127.1561489, 37.4715596 ], [ 127.1561718, 37.4715547 ], [ 127.1561944, 37.4715491 ], [ 127.1562165, 37.4715426 ], [ 127.1562383, 37.4715352 ], [ 127.1562597, 37.471527 ], [ 127.1562732, 37.4715223 ], [ 127.1562853, 37.471519 ], [ 127.1562977, 37.4715166 ], [ 127.1563102, 37.4715152 ], [ 127.1563025, 37.4713801 ], [ 127.1563022, 37.4713755 ], [ 127.1567622, 37.4712984 ], [ 127.1585791, 37.4709958 ], [ 127.1591157, 37.47106 ], [ 127.160309, 37.4712068 ], [ 127.1630027, 37.4715382 ], [ 127.1627718, 37.4709488 ], [ 127.1627674, 37.4709375 ], [ 127.162734, 37.4708897 ], [ 127.1631049, 37.4708311 ], [ 127.1635211, 37.4709135 ], [ 127.1640302, 37.4707535 ], [ 127.1645391, 37.470505 ], [ 127.164881, 37.4704098 ], [ 127.1651778, 37.4703192 ], [ 127.1654831, 37.4702371 ], [ 127.1653905, 37.4699008 ], [ 127.1658621, 37.4698866 ], [ 127.1663333, 37.4696805 ], [ 127.1668603, 37.4696378 ], [ 127.1668035, 37.4694996 ], [ 127.1666142, 37.4694327 ], [ 127.1664811, 37.4692999 ], [ 127.1664601, 37.4692789 ], [ 127.1664986, 37.4691937 ], [ 127.1664614, 37.4691348 ], [ 127.1667887, 37.469041 ], [ 127.1668943, 37.4690165 ], [ 127.1673889, 37.4688822 ], [ 127.1677985, 37.4687517 ], [ 127.1684322, 37.468751 ], [ 127.1685619, 37.4687734 ], [ 127.1689639, 37.4688077 ], [ 127.1693341, 37.4689679 ], [ 127.1696147, 37.4690722 ], [ 127.1700696, 37.4691984 ], [ 127.1701709, 37.4692891 ], [ 127.1706901, 37.4694572 ], [ 127.1709174, 37.4696247 ], [ 127.1709967, 37.4696945 ], [ 127.1713599, 37.4699682 ], [ 127.1716771, 37.4703084 ], [ 127.1719149, 37.4706274 ], [ 127.1722988, 37.4708898 ], [ 127.1727631, 37.4710314 ], [ 127.1729374, 37.4711571 ], [ 127.1732165, 37.4712181 ], [ 127.1733896, 37.4712976 ], [ 127.1738629, 37.4713697 ], [ 127.1741947, 37.4714768 ], [ 127.1745255, 37.4716472 ], [ 127.1747543, 37.4717464 ], [ 127.1749883, 37.4717858 ], [ 127.1752054, 37.4718041 ], [ 127.1754345, 37.4718181 ], [ 127.1759961, 37.4720703 ], [ 127.1762511, 37.4723047 ], [ 127.1764356, 37.4724712 ], [ 127.176907, 37.4728015 ], [ 127.1772789, 37.4728088 ], [ 127.1773672, 37.4729254 ], [ 127.1776759, 37.4732765 ], [ 127.1777276, 37.473281 ], [ 127.1781858, 37.47308 ], [ 127.1785431, 37.4733125 ], [ 127.1789122, 37.4732668 ], [ 127.1789122, 37.4733156 ], [ 127.1789162, 37.4733434 ], [ 127.1789078, 37.4736295 ], [ 127.1786281, 37.4743571 ], [ 127.1787296, 37.4748116 ], [ 127.1784208, 37.4749444 ], [ 127.1780619, 37.4750868 ], [ 127.177985, 37.4751008 ], [ 127.1778192, 37.4751216 ], [ 127.1775569, 37.4752238 ], [ 127.1774773, 37.4753419 ], [ 127.1772114, 37.4754399 ], [ 127.1770911, 37.4757272 ], [ 127.1770244, 37.4759722 ], [ 127.1767126, 37.4761337 ], [ 127.1766009, 37.476285 ], [ 127.1761066, 37.4765088 ], [ 127.1760191, 37.4765206 ], [ 127.1757099, 37.4766554 ], [ 127.1753898, 37.4767397 ], [ 127.1753496, 37.4768784 ], [ 127.175338, 37.4771309 ], [ 127.1752665, 37.4775156 ], [ 127.1751789, 37.4776444 ], [ 127.1750664, 37.477721 ], [ 127.1750694, 37.4778693 ], [ 127.1752485, 37.4779365 ], [ 127.1752643, 37.4779465 ], [ 127.1752819, 37.4779989 ], [ 127.1753865, 37.4780476 ], [ 127.1754534, 37.4780905 ], [ 127.1755192, 37.4781836 ], [ 127.1755561, 37.4782422 ], [ 127.1755565, 37.4782439 ], [ 127.175587, 37.4782404 ], [ 127.1755383, 37.478288 ], [ 127.1754367, 37.4783872 ], [ 127.1754107, 37.478435 ], [ 127.1754422, 37.4784272 ], [ 127.1754627, 37.4785021 ], [ 127.1754872, 37.4786356 ], [ 127.175503, 37.4787794 ], [ 127.1755059, 37.4788963 ], [ 127.1754848, 37.4789453 ], [ 127.1754258, 37.4790621 ], [ 127.1753524, 37.4791675 ], [ 127.175302, 37.4793328 ], [ 127.1753097, 37.4793495 ], [ 127.1753522, 37.4794008 ], [ 127.1752275, 37.4794596 ], [ 127.175146, 37.479525 ], [ 127.1750327, 37.479704 ], [ 127.1750417, 37.4798703 ], [ 127.1756626, 37.4800493 ], [ 127.1756855, 37.4803642 ], [ 127.1757597, 37.480466 ], [ 127.1759464, 37.4804949 ], [ 127.176026, 37.4805816 ], [ 127.176092, 37.4807053 ], [ 127.176079, 37.4809211 ], [ 127.1759538, 37.481132 ], [ 127.1757663, 37.4813911 ], [ 127.175835, 37.4817398 ], [ 127.1757168, 37.4819086 ], [ 127.175664, 37.4821329 ], [ 127.1755225, 37.4824495 ], [ 127.1756391, 37.482673 ], [ 127.1756293, 37.4828667 ], [ 127.1756962, 37.4832032 ], [ 127.1760106, 37.4834583 ], [ 127.1761273, 37.4836387 ], [ 127.1760953, 37.4837822 ], [ 127.1759048, 37.4839465 ], [ 127.1757242, 37.4841376 ], [ 127.1757031, 37.4843361 ], [ 127.1757131, 37.4844854 ], [ 127.1758696, 37.4846178 ], [ 127.1758774, 37.4846313 ], [ 127.1758865, 37.4847202 ], [ 127.1757284, 37.4846748 ], [ 127.1757299, 37.4848032 ], [ 127.17576, 37.4849362 ], [ 127.1757018, 37.485354 ], [ 127.1758493, 37.4853957 ], [ 127.1761502, 37.4853377 ], [ 127.1763012, 37.4852744 ], [ 127.1765818, 37.4853019 ], [ 127.1767567, 37.4852737 ], [ 127.1769652, 37.4852984 ], [ 127.1770769, 37.4853884 ], [ 127.1770924, 37.4857394 ], [ 127.1774806, 37.4860198 ], [ 127.177669, 37.4866157 ], [ 127.1775872, 37.4869104 ], [ 127.1777034, 37.4872206 ], [ 127.1777658, 37.4871727 ], [ 127.1781943, 37.4871567 ], [ 127.1787761, 37.4871435 ], [ 127.1786204, 37.4868333 ], [ 127.1785807, 37.4860864 ], [ 127.1783997, 37.4853725 ], [ 127.1786486, 37.4851196 ], [ 127.1788281, 37.4849795 ], [ 127.1792703, 37.4849103 ], [ 127.1799079, 37.4848035 ], [ 127.1803189, 37.4846484 ], [ 127.1808461, 37.4842867 ], [ 127.1810371, 37.4842922 ], [ 127.1814461, 37.4843722 ], [ 127.1818783, 37.484193 ], [ 127.182478, 37.4840714 ], [ 127.1828185, 37.4840154 ], [ 127.1831986, 37.4838168 ], [ 127.1834269, 37.4837894 ], [ 127.183634, 37.483871 ], [ 127.1838955, 37.4839382 ], [ 127.183982, 37.483859 ], [ 127.1839554, 37.4834831 ], [ 127.1840601, 37.4834252 ], [ 127.184396, 37.4832947 ], [ 127.1845953, 37.4829206 ], [ 127.1847257, 37.4826843 ], [ 127.1848552, 37.4822208 ], [ 127.1849292, 37.4819621 ], [ 127.1849876, 37.4817589 ], [ 127.1850446, 37.4817106 ], [ 127.1850988, 37.4816726 ], [ 127.1851584, 37.4816208 ], [ 127.1852748, 37.4815302 ], [ 127.1854401, 37.4815167 ], [ 127.1855492, 37.481441 ], [ 127.1855501, 37.4813537 ], [ 127.1856572, 37.4811376 ], [ 127.185881, 37.4810945 ], [ 127.1860157, 37.4810357 ], [ 127.1861073, 37.4809987 ], [ 127.1862785, 37.4808745 ], [ 127.1867987, 37.4807747 ], [ 127.187134, 37.4810193 ], [ 127.1874314, 37.4810771 ], [ 127.1875879, 37.4809298 ], [ 127.1877362, 37.4808818 ], [ 127.1880258, 37.4806854 ], [ 127.1882572, 37.4805295 ], [ 127.1883854, 37.4803807 ], [ 127.1885852, 37.4803371 ], [ 127.1887016, 37.4803152 ], [ 127.189191, 37.4803208 ], [ 127.1896649, 37.4804603 ], [ 127.1904179, 37.4806832 ], [ 127.1908006, 37.4806464 ], [ 127.1912137, 37.480668 ], [ 127.1915405, 37.4806836 ], [ 127.1918042, 37.4806963 ], [ 127.1919825, 37.4808546 ], [ 127.1921642, 37.481026 ], [ 127.1922686, 37.4811111 ], [ 127.1926516, 37.4812972 ], [ 127.1930578, 37.4813926 ], [ 127.1932284, 37.4814359 ], [ 127.1938654, 37.4813725 ], [ 127.1940474, 37.4812912 ], [ 127.1941986, 37.4811732 ], [ 127.1944705, 37.4810606 ], [ 127.1945704, 37.4810239 ], [ 127.1946948, 37.480988 ], [ 127.1948316, 37.4809149 ], [ 127.1950217, 37.4808419 ], [ 127.1952897, 37.4808226 ], [ 127.1954192, 37.480819 ], [ 127.1956931, 37.4806982 ], [ 127.1959078, 37.4805359 ], [ 127.1959618, 37.4802267 ], [ 127.1961219, 37.4801363 ], [ 127.1963695, 37.4799967 ], [ 127.1965626, 37.4798886 ], [ 127.1967261, 37.4798453 ], [ 127.1968199, 37.4798256 ], [ 127.1970029, 37.479785 ], [ 127.197189, 37.4797206 ], [ 127.1972774, 37.4796907 ], [ 127.1973231, 37.4796874 ], [ 127.1975212, 37.4797333 ], [ 127.197715, 37.4796523 ], [ 127.1977943, 37.4795862 ], [ 127.1980625, 37.4796006 ], [ 127.1981813, 37.4796123 ], [ 127.1984347, 37.4796036 ], [ 127.198558, 37.4797438 ], [ 127.1987285, 37.4799394 ], [ 127.1987679, 37.4799941 ], [ 127.1989251, 37.480011 ], [ 127.1990431, 37.4800054 ], [ 127.1992961, 37.4799945 ], [ 127.1993742, 37.4799666 ], [ 127.1994621, 37.4799765 ], [ 127.1997183, 37.4801381 ], [ 127.1999116, 37.4804134 ], [ 127.2000178, 37.4806725 ], [ 127.2002576, 37.4807333 ], [ 127.2002992, 37.4810345 ], [ 127.2003342, 37.4813452 ], [ 127.2005563, 37.4817155 ], [ 127.2007194, 37.4819835 ], [ 127.2006773, 37.4820625 ], [ 127.200754, 37.4821663 ], [ 127.2007991, 37.4821767 ], [ 127.2008701, 37.482202 ], [ 127.2009183, 37.4822792 ], [ 127.2007357, 37.4826767 ], [ 127.2006251, 37.4829149 ], [ 127.2001985, 37.4833335 ], [ 127.200217, 37.4834415 ], [ 127.2007756, 37.4836618 ], [ 127.2008512, 37.4836954 ], [ 127.2010951, 37.4836721 ], [ 127.2014819, 37.4836873 ], [ 127.2016458, 37.4837356 ], [ 127.2017539, 37.4841001 ], [ 127.2018865, 37.4840798 ], [ 127.2019642, 37.4840726 ], [ 127.2020512, 37.4840498 ], [ 127.2019759, 37.483633 ], [ 127.2020614, 37.4830649 ], [ 127.2021081, 37.4829978 ], [ 127.2021823, 37.4829677 ], [ 127.2026514, 37.4830809 ], [ 127.2032406, 37.4828233 ], [ 127.2032385, 37.4825946 ], [ 127.2030706, 37.482408 ], [ 127.2030193, 37.4821665 ], [ 127.2030519, 37.4819605 ], [ 127.2030963, 37.4817995 ], [ 127.2034005, 37.48147 ], [ 127.2036237, 37.4814113 ], [ 127.2037123, 37.4813069 ], [ 127.2037364, 37.4811165 ], [ 127.2037925, 37.4809397 ], [ 127.2040701, 37.4805717 ], [ 127.2045389, 37.4805497 ], [ 127.204923, 37.4803871 ], [ 127.2050478, 37.4802813 ], [ 127.2060625, 37.4805231 ], [ 127.2064659, 37.4803634 ], [ 127.2066809, 37.4803468 ], [ 127.2070537, 37.4806148 ], [ 127.2074117, 37.4808736 ], [ 127.2076783, 37.480985 ], [ 127.2080066, 37.4810283 ], [ 127.2085463, 37.4810263 ], [ 127.208737, 37.481082 ], [ 127.20902, 37.4810802 ], [ 127.2095043, 37.4811845 ], [ 127.2097382, 37.4813456 ], [ 127.2104493, 37.4811262 ], [ 127.2107436, 37.4811593 ], [ 127.2110108, 37.4812917 ], [ 127.2112358, 37.4813433 ], [ 127.2115405, 37.4815505 ], [ 127.2117113, 37.4815447 ], [ 127.2124591, 37.4817011 ], [ 127.2131174, 37.4818513 ], [ 127.213538, 37.4818914 ], [ 127.2139208, 37.4818409 ], [ 127.2141999, 37.481938 ], [ 127.2144441, 37.4820329 ], [ 127.214625, 37.4820518 ], [ 127.2148193, 37.4820484 ], [ 127.2151337, 37.4821361 ], [ 127.2152243, 37.4821568 ], [ 127.2155436, 37.4822808 ], [ 127.2156604, 37.482106 ], [ 127.2160077, 37.4817951 ], [ 127.2168476, 37.481654 ], [ 127.217121, 37.4815789 ], [ 127.2172171, 37.4815664 ], [ 127.2178634, 37.4814144 ], [ 127.2181586, 37.4814954 ], [ 127.2183865, 37.4815168 ], [ 127.2186905, 37.4816033 ], [ 127.2189963, 37.4818145 ], [ 127.2193195, 37.4819972 ], [ 127.2193905, 37.4819612 ], [ 127.21947, 37.481931 ], [ 127.2196103, 37.4819326 ], [ 127.2199431, 37.4817086 ], [ 127.2202209, 37.4815271 ], [ 127.220412, 37.4814136 ], [ 127.220457, 37.4812705 ], [ 127.2204346, 37.4809138 ], [ 127.2207291, 37.4807074 ], [ 127.2210377, 37.4804874 ], [ 127.2210927, 37.480227 ], [ 127.2212368, 37.4801628 ], [ 127.2214093, 37.4800884 ], [ 127.2213192, 37.4799318 ], [ 127.2215096, 37.4799131 ], [ 127.2218546, 37.4798694 ], [ 127.2221568, 37.479832 ], [ 127.2224146, 37.4797291 ], [ 127.2228419, 37.4797125 ], [ 127.2230235, 37.479562 ], [ 127.2231461, 37.4794631 ], [ 127.2231937, 37.4794261 ], [ 127.2234186, 37.479489 ], [ 127.223782, 37.4794894 ], [ 127.2240532, 37.4794896 ], [ 127.2242496, 37.4796177 ], [ 127.2243837, 37.4797013 ], [ 127.2246919, 37.4796888 ], [ 127.225019, 37.479677 ], [ 127.2253995, 37.4796756 ], [ 127.2254983, 37.4797152 ], [ 127.2255077, 37.479719 ], [ 127.2255754, 37.4797404 ], [ 127.2258233, 37.4797961 ], [ 127.2259904, 37.4798103 ], [ 127.2260998, 37.4796856 ], [ 127.2261927, 37.4795604 ], [ 127.22624, 37.4795057 ], [ 127.2263362, 37.4793114 ], [ 127.226397, 37.4791826 ], [ 127.2265337, 37.4789002 ], [ 127.2267069, 37.4786483 ], [ 127.2269138, 37.4784059 ], [ 127.2269964, 37.478305 ], [ 127.2273918, 37.4781493 ], [ 127.2277135, 37.4780663 ], [ 127.2278565, 37.4780032 ], [ 127.2279937, 37.4779411 ], [ 127.2280799, 37.4778331 ], [ 127.2281966, 37.4776952 ], [ 127.2283901, 37.4774724 ], [ 127.2286367, 37.4774327 ], [ 127.2289937, 37.4774777 ], [ 127.2292405, 37.4775091 ], [ 127.2296125, 37.4775089 ], [ 127.2300438, 37.4775103 ], [ 127.2303735, 37.477511 ], [ 127.2307175, 37.4774622 ], [ 127.2307502, 37.4774532 ], [ 127.231145, 37.4773193 ], [ 127.2312441, 37.4772934 ], [ 127.2314389, 37.4774013 ], [ 127.231698, 37.4773879 ], [ 127.2317922, 37.4773834 ], [ 127.2319241, 37.477459 ], [ 127.232282, 37.4773797 ], [ 127.2324993, 37.4772457 ], [ 127.2326446, 37.4772699 ], [ 127.2328586, 37.4773266 ], [ 127.2330541, 37.4774092 ], [ 127.233452, 37.4774492 ], [ 127.2335662, 37.4774608 ], [ 127.2339164, 37.4774177 ], [ 127.2340173, 37.4774087 ], [ 127.234381, 37.4773478 ], [ 127.2346889, 37.4771815 ], [ 127.2350031, 37.4770138 ], [ 127.2351426, 37.4769381 ], [ 127.2351522, 37.4769328 ], [ 127.2351696, 37.4769234 ], [ 127.2352051, 37.4769221 ], [ 127.2352122, 37.4769219 ], [ 127.2355875, 37.4769082 ], [ 127.2358311, 37.4768964 ], [ 127.2361761, 37.4768283 ], [ 127.2363408, 37.4767987 ], [ 127.2366196, 37.4768069 ], [ 127.2369319, 37.4768288 ], [ 127.2372292, 37.4767537 ], [ 127.2373223, 37.4767319 ], [ 127.2375567, 37.4766155 ], [ 127.2377888, 37.4766045 ], [ 127.2381152, 37.4765866 ], [ 127.2384239, 37.4763587 ], [ 127.2385092, 37.4761899 ], [ 127.2386787, 37.4759952 ], [ 127.2387589, 37.4760695 ], [ 127.2388788, 37.4761762 ], [ 127.2389303, 37.4762238 ], [ 127.2391256, 37.4763855 ], [ 127.2393495, 37.4764107 ], [ 127.2394522, 37.4764256 ], [ 127.2396552, 37.4764717 ], [ 127.2398463, 37.4765164 ], [ 127.2400559, 37.4765899 ], [ 127.2401706, 37.4766146 ], [ 127.2405215, 37.4766457 ], [ 127.2406366, 37.4766582 ], [ 127.2408928, 37.4767412 ], [ 127.2412424, 37.4768508 ], [ 127.2413115, 37.4768189 ], [ 127.2414618, 37.4767609 ], [ 127.2415195, 37.476748 ], [ 127.2416736, 37.4767772 ], [ 127.2417528, 37.4767937 ], [ 127.2417695, 37.4767906 ], [ 127.2419492, 37.4767564 ], [ 127.242076, 37.4766955 ], [ 127.2422127, 37.4766301 ], [ 127.2423535, 37.4765612 ], [ 127.2424194, 37.4765584 ], [ 127.2425853, 37.4765406 ], [ 127.2426446, 37.4765242 ], [ 127.2429239, 37.4765454 ], [ 127.2430105, 37.4765543 ], [ 127.243141, 37.4765987 ], [ 127.2432614, 37.4766324 ], [ 127.2433028, 37.4766328 ], [ 127.2435997, 37.4765871 ], [ 127.2437903, 37.4765558 ], [ 127.2440064, 37.4765442 ], [ 127.2443723, 37.4765203 ], [ 127.2445831, 37.4765728 ], [ 127.2446052, 37.4766012 ], [ 127.2446767, 37.4766934 ], [ 127.2446686, 37.4768492 ], [ 127.2446679, 37.4768617 ], [ 127.2447635, 37.4771455 ], [ 127.2450559, 37.4774122 ], [ 127.2452536, 37.477593 ], [ 127.2453911, 37.4777193 ], [ 127.2453863, 37.4777995 ], [ 127.2453581, 37.4782708 ], [ 127.245359, 37.4782959 ], [ 127.2453581, 37.4783152 ], [ 127.2453493, 37.4785004 ], [ 127.2454716, 37.4785956 ], [ 127.2458135, 37.4788806 ], [ 127.2460152, 37.4790078 ], [ 127.2460696, 37.4790424 ], [ 127.2462494, 37.4790278 ], [ 127.2463509, 37.4790141 ], [ 127.2465375, 37.4791727 ], [ 127.2466605, 37.4792813 ], [ 127.2467639, 37.4793771 ], [ 127.246791, 37.4794716 ], [ 127.2468429, 37.4797128 ], [ 127.2468869, 37.4799333 ], [ 127.2469341, 37.4800734 ], [ 127.2470207, 37.4804678 ], [ 127.2469679, 37.4808384 ], [ 127.2469511, 37.4809399 ], [ 127.2466353, 37.4810435 ], [ 127.2463004, 37.4811583 ], [ 127.2461883, 37.4811977 ], [ 127.2457889, 37.4813468 ], [ 127.2454306, 37.4814802 ], [ 127.2451145, 37.4816026 ], [ 127.2451087, 37.4816135 ], [ 127.2450093, 37.4817998 ], [ 127.2449973, 37.4819683 ], [ 127.2449763, 37.4822721 ], [ 127.2449606, 37.4824583 ], [ 127.2449589, 37.4824953 ], [ 127.2449551, 37.4828816 ], [ 127.2449502, 37.4831279 ], [ 127.2449422, 37.4835242 ], [ 127.2449425, 37.4837221 ], [ 127.24494, 37.483809 ], [ 127.2448735, 37.4841875 ], [ 127.2447133, 37.4843707 ], [ 127.2445323, 37.4845732 ], [ 127.2443284, 37.4847403 ], [ 127.2443538, 37.484902 ], [ 127.2443795, 37.4850323 ], [ 127.2444549, 37.4850825 ], [ 127.2446264, 37.4851611 ], [ 127.2448877, 37.4852831 ], [ 127.2451741, 37.485394 ], [ 127.2455566, 37.4856152 ], [ 127.2459379, 37.485831 ], [ 127.2463406, 37.486061 ], [ 127.2466084, 37.4861138 ], [ 127.2470044, 37.4861877 ], [ 127.2470166, 37.48619 ], [ 127.2470572, 37.4861963 ], [ 127.2476458, 37.4862146 ], [ 127.2479198, 37.4862513 ], [ 127.2482789, 37.4862916 ], [ 127.2485437, 37.4863213 ], [ 127.2487468, 37.4862832 ], [ 127.2490276, 37.4862909 ], [ 127.2492266, 37.4862931 ], [ 127.2493367, 37.4861711 ], [ 127.2495504, 37.4859237 ], [ 127.2497279, 37.4858209 ], [ 127.2501036, 37.4856392 ], [ 127.2504252, 37.4854827 ], [ 127.2510459, 37.4854029 ], [ 127.2514527, 37.4853547 ], [ 127.2517325, 37.485194 ], [ 127.2521242, 37.4851113 ], [ 127.2525847, 37.4849973 ], [ 127.2528771, 37.4850834 ], [ 127.2531119, 37.4851151 ], [ 127.2535931, 37.4850285 ], [ 127.2536014, 37.4851463 ], [ 127.2536113, 37.4852097 ], [ 127.2536927, 37.4856228 ], [ 127.253682, 37.4856553 ], [ 127.2536353, 37.4859488 ], [ 127.2535155, 37.4861643 ], [ 127.2536396, 37.4864764 ], [ 127.2538725, 37.4867461 ], [ 127.2542778, 37.4870207 ], [ 127.2543393, 37.4870728 ], [ 127.2559511, 37.4885532 ], [ 127.2559864, 37.4885504 ], [ 127.257014, 37.4884123 ], [ 127.2571968, 37.4885124 ], [ 127.2578269, 37.4891337 ], [ 127.2584345, 37.4897307 ], [ 127.2585691, 37.4898305 ], [ 127.2587431, 37.4903013 ], [ 127.2591714, 37.491069 ], [ 127.2591779, 37.4912926 ], [ 127.2590704, 37.4917261 ], [ 127.2591135, 37.4918771 ], [ 127.2590749, 37.4922378 ], [ 127.258477, 37.4927492 ], [ 127.258266, 37.4931706 ], [ 127.2583015, 37.4932982 ], [ 127.2583317, 37.4934072 ], [ 127.2578948, 37.4938505 ], [ 127.2579401, 37.4941168 ], [ 127.2578913, 37.4944515 ], [ 127.2579811, 37.4946467 ], [ 127.2575055, 37.4950097 ], [ 127.2571922, 37.4951644 ], [ 127.2569504, 37.4953851 ], [ 127.2562988, 37.4957528 ], [ 127.2559975, 37.4958565 ], [ 127.2554892, 37.4963945 ], [ 127.25507, 37.4970021 ], [ 127.2551425, 37.4975909 ], [ 127.2549937, 37.4983105 ], [ 127.2549778, 37.4985342 ], [ 127.2549467, 37.4991187 ], [ 127.2547298, 37.4994796 ], [ 127.2546302, 37.4998766 ], [ 127.2546947, 37.5002459 ], [ 127.2545593, 37.5005955 ], [ 127.2545555, 37.5006053 ], [ 127.2544455, 37.5007684 ], [ 127.2543118, 37.5012176 ], [ 127.2538586, 37.5019133 ], [ 127.2536546, 37.5024784 ], [ 127.2534965, 37.5026448 ], [ 127.2532271, 37.5032486 ], [ 127.2532727, 37.5033375 ], [ 127.2536699, 37.5041129 ], [ 127.2542415, 37.5048422 ], [ 127.2542564, 37.5050521 ], [ 127.2548228, 37.5056653 ], [ 127.2547452, 37.5060211 ], [ 127.2547214, 37.5060932 ], [ 127.2546007, 37.5063168 ], [ 127.2553131, 37.5063856 ], [ 127.2562646, 37.5064876 ], [ 127.2572196, 37.5066768 ], [ 127.2573862, 37.5067098 ], [ 127.2582126, 37.5068007 ], [ 127.2587679, 37.5068834 ], [ 127.2603596, 37.507103 ], [ 127.2607025, 37.5072383 ], [ 127.2621675, 37.5073676 ], [ 127.2623195, 37.507296 ], [ 127.2629323, 37.507007 ], [ 127.2631584, 37.5069969 ], [ 127.2642747, 37.5069398 ], [ 127.2643349, 37.5069448 ], [ 127.2644465, 37.5069383 ], [ 127.2647933, 37.5069182 ], [ 127.2651036, 37.5068064 ], [ 127.2653088, 37.5067325 ], [ 127.265395, 37.5067271 ], [ 127.2661229, 37.5066418 ], [ 127.2663456, 37.5066157 ], [ 127.2667539, 37.5065985 ], [ 127.2674273, 37.5065619 ], [ 127.2679103, 37.5063376 ], [ 127.2679556, 37.5063402 ], [ 127.2683257, 37.506362 ], [ 127.2686469, 37.50646 ], [ 127.2686783, 37.5064756 ], [ 127.2693414, 37.5068047 ], [ 127.2694063, 37.5068359 ], [ 127.2703806, 37.5074123 ], [ 127.2706671, 37.5075816 ], [ 127.2708201, 37.5076024 ], [ 127.2711552, 37.5077775 ], [ 127.2720588, 37.5077396 ], [ 127.2726494, 37.5075734 ], [ 127.2733476, 37.5080686 ], [ 127.2742517, 37.508219 ], [ 127.2742634, 37.5082251 ], [ 127.2744645, 37.5083313 ], [ 127.2746263, 37.508411 ], [ 127.2751895, 37.508423 ], [ 127.2761636, 37.5084404 ], [ 127.276184, 37.5084511 ], [ 127.2763946, 37.5085622 ], [ 127.2768024, 37.5088743 ], [ 127.2771419, 37.5091517 ], [ 127.2774671, 37.5094109 ], [ 127.2778739, 37.5097327 ], [ 127.2775701, 37.5103527 ], [ 127.2779655, 37.5106774 ], [ 127.2779907, 37.51127 ], [ 127.2782566, 37.5113607 ], [ 127.2786057, 37.5114884 ], [ 127.2786705, 37.5115121 ], [ 127.2789216, 37.511784 ], [ 127.2794165, 37.5123365 ], [ 127.2794656, 37.5123534 ], [ 127.2799486, 37.51252 ], [ 127.2800106, 37.5125414 ], [ 127.2803012, 37.5131091 ], [ 127.2809879, 37.5132609 ], [ 127.2814715, 37.5132291 ], [ 127.2820236, 37.5132028 ], [ 127.2825333, 37.5132913 ], [ 127.2827506, 37.5133747 ], [ 127.2834748, 37.514158 ], [ 127.2834935, 37.514178 ], [ 127.2836039, 37.514226 ], [ 127.2835768, 37.5143279 ], [ 127.2835603, 37.5144041 ], [ 127.2836838, 37.5144135 ], [ 127.2856353, 37.5144088 ], [ 127.2856089, 37.5147457 ], [ 127.2855596, 37.5153896 ], [ 127.2855213, 37.5158483 ], [ 127.2854961, 37.5161674 ], [ 127.2854932, 37.5162455 ], [ 127.2853853, 37.5176595 ], [ 127.2853638, 37.5180129 ], [ 127.2853021, 37.518279 ], [ 127.2851821, 37.5187545 ], [ 127.2850893, 37.5191047 ], [ 127.285035, 37.5193156 ], [ 127.2849027, 37.5198494 ], [ 127.2847498, 37.5204513 ], [ 127.2844489, 37.5216171 ], [ 127.281398, 37.5252238 ], [ 127.2800879, 37.5258506 ], [ 127.2783628, 37.5266731 ], [ 127.2776101, 37.5270322 ], [ 127.2760727, 37.5277651 ], [ 127.2740539, 37.5288277 ], [ 127.2700843, 37.5301841 ], [ 127.2697248, 37.5303316 ], [ 127.269052, 37.5305994 ], [ 127.2688905, 37.5306638 ], [ 127.2683616, 37.5308748 ], [ 127.2679215, 37.5310497 ], [ 127.267725, 37.5311274 ], [ 127.2675395, 37.5311994 ], [ 127.2670123, 37.5314092 ], [ 127.2664463, 37.5316352 ], [ 127.2660654, 37.5317869 ], [ 127.265558, 37.5319892 ], [ 127.2653362, 37.5320768 ], [ 127.2650574, 37.532187 ], [ 127.2644289, 37.5324333 ], [ 127.261179, 37.5345047 ], [ 127.2587717, 37.536039 ], [ 127.2585656, 37.5361372 ], [ 127.2580218, 37.5363968 ], [ 127.2577042, 37.5365474 ], [ 127.2574928, 37.5366483 ], [ 127.2571826, 37.5367964 ], [ 127.2568657, 37.5369476 ], [ 127.2563602, 37.5371867 ], [ 127.2558992, 37.5374032 ], [ 127.2553553, 37.5376612 ], [ 127.2550097, 37.5378259 ], [ 127.2544638, 37.5380856 ], [ 127.2538577, 37.5383724 ], [ 127.2531148, 37.5387322 ], [ 127.2527683, 37.5389263 ], [ 127.2518788, 37.5394023 ], [ 127.2514201, 37.5396422 ], [ 127.2474574, 37.5414492 ], [ 127.2468505, 37.5416414 ], [ 127.245849, 37.5419634 ], [ 127.2451204, 37.5421919 ], [ 127.2444725, 37.5423971 ], [ 127.2437285, 37.5426356 ], [ 127.2420051, 37.5431833 ], [ 127.2418072, 37.5432459 ], [ 127.2417997, 37.5432459 ], [ 127.2409105, 37.5440005 ], [ 127.2392513, 37.5454127 ], [ 127.2375615, 37.5468496 ], [ 127.2371007, 37.5480155 ], [ 127.2367243, 37.5489741 ], [ 127.2364039, 37.5497853 ], [ 127.2361389, 37.5504534 ], [ 127.2351158, 37.5537929 ], [ 127.235096, 37.5543624 ], [ 127.233684, 37.5573586 ], [ 127.2332493, 37.557882 ], [ 127.2322762, 37.5599091 ], [ 127.2304795, 37.5612644 ], [ 127.2287012, 37.5632511 ], [ 127.226849, 37.5637089 ], [ 127.225296, 37.5640865 ], [ 127.22482, 37.5642093 ], [ 127.2234226, 37.5645422 ], [ 127.2220262, 37.5648668 ], [ 127.2222505, 37.564867 ], [ 127.220057, 37.5667716 ], [ 127.2197734, 37.5684702 ], [ 127.2197739, 37.5720741 ], [ 127.2198235, 37.573751 ], [ 127.2191568, 37.5741995 ], [ 127.2153575, 37.5756769 ], [ 127.2134955, 37.5767471 ], [ 127.2111987, 37.5792796 ], [ 127.207832, 37.5828835 ], [ 127.2061569, 37.5850054 ], [ 127.2050133, 37.5864853 ], [ 127.2044593, 37.5870108 ], [ 127.2021494, 37.5892014 ], [ 127.2012144, 37.5895972 ], [ 127.2000194, 37.5901031 ], [ 127.1964868, 37.5912585 ], [ 127.1908252, 37.5915896 ], [ 127.1851816, 37.5918793 ], [ 127.1830957, 37.5918889 ], [ 127.1813418, 37.5900781 ], [ 127.179524, 37.5878324 ], [ 127.1774883, 37.5864719 ], [ 127.1738673, 37.5834967 ], [ 127.1730232, 37.5828652 ], [ 127.1720087, 37.582249 ], [ 127.1714905, 37.5819285 ], [ 127.1708497, 37.581529 ], [ 127.1696189, 37.5807764 ], [ 127.1682104, 37.5799125 ], [ 127.1682114, 37.5789816 ], [ 127.1702593, 37.5790118 ], [ 127.1738711, 37.5797349 ], [ 127.1750795, 37.5802708 ], [ 127.1764845, 37.5810381 ], [ 127.1771299, 37.5812021 ], [ 127.1770934, 37.5805481 ], [ 127.1770703, 37.5804796 ], [ 127.1770944, 37.5803926 ], [ 127.1771022, 37.5803383 ], [ 127.1771203, 37.5802532 ], [ 127.1771288, 37.5801468 ], [ 127.1771325, 37.5800045 ], [ 127.1771299, 37.5798686 ], [ 127.1770752, 37.5796727 ], [ 127.1770563, 37.5796284 ], [ 127.1770398, 37.57953 ], [ 127.1769598, 37.5794039 ], [ 127.1769264, 37.5793472 ], [ 127.1768819, 37.5792856 ], [ 127.1768659, 37.5792637 ], [ 127.1768411, 37.5792299 ], [ 127.1767674, 37.5791455 ], [ 127.1767307, 37.5791062 ], [ 127.1766944, 37.5790734 ], [ 127.1766856, 37.5790655 ], [ 127.1766062, 37.5789939 ], [ 127.176529, 37.5789238 ], [ 127.1764348, 37.5788635 ], [ 127.1763495, 37.5788082 ], [ 127.1762561, 37.5787774 ], [ 127.1761845, 37.5787416 ], [ 127.1760892, 37.5786677 ], [ 127.1760334, 37.5786188 ], [ 127.17601, 37.5785984 ], [ 127.1759636, 37.5785533 ], [ 127.1759218, 37.5785468 ], [ 127.1758472, 37.578535 ], [ 127.1758178, 37.5785304 ], [ 127.1757073, 37.578502 ], [ 127.1755998, 37.5784579 ], [ 127.1755318, 37.5784188 ], [ 127.1754424, 37.5783665 ], [ 127.1754095, 37.5782924 ], [ 127.1754022, 37.5781991 ], [ 127.1753931, 37.5780906 ], [ 127.1753523, 37.5777536 ], [ 127.1753418, 37.5776661 ], [ 127.1753353, 37.5776127 ], [ 127.1753488, 37.5775683 ], [ 127.1753611, 37.5775281 ], [ 127.1753593, 37.577491 ], [ 127.175357, 37.5774813 ], [ 127.1753476, 37.5774415 ], [ 127.1753432, 37.5774234 ], [ 127.1753387, 37.5774085 ], [ 127.1753329, 37.5773889 ], [ 127.175326, 37.5773658 ], [ 127.1753257, 37.5772656 ], [ 127.1753278, 37.5772336 ], [ 127.175362, 37.5771854 ], [ 127.1754217, 37.5771228 ], [ 127.1754521, 37.5770592 ], [ 127.1754987, 37.5770186 ], [ 127.1755128, 37.576966 ], [ 127.1755135, 37.5769086 ], [ 127.1755247, 37.5768174 ], [ 127.1755402, 37.5766837 ], [ 127.1755582, 37.576646 ], [ 127.1755872, 37.5766229 ], [ 127.1755931, 37.5765646 ], [ 127.1756102, 37.5764838 ], [ 127.1756215, 37.576416 ], [ 127.175633, 37.5763739 ], [ 127.1756538, 37.5763139 ], [ 127.1757333, 37.5759082 ], [ 127.1757399, 37.57588 ], [ 127.1757545, 37.575792 ], [ 127.1757751, 37.5756564 ], [ 127.1757798, 37.5755885 ], [ 127.1757763, 37.5755437 ], [ 127.1757718, 37.5755039 ], [ 127.1757707, 37.5754947 ], [ 127.1757679, 37.5754699 ], [ 127.1757663, 37.5754554 ], [ 127.1757562, 37.5754064 ], [ 127.1757274, 37.5752271 ], [ 127.175691, 37.5749292 ], [ 127.1756871, 37.5749002 ], [ 127.1756878, 37.5748992 ], [ 127.175733, 37.5748334 ], [ 127.1757761, 37.5747708 ], [ 127.1757858, 37.5747567 ], [ 127.1757956, 37.5747425 ], [ 127.1759603, 37.5745033 ], [ 127.1759942, 37.5744341 ], [ 127.1760586, 37.5743269 ], [ 127.176106, 37.5742171 ], [ 127.176109, 37.5741572 ], [ 127.1761391, 37.5740985 ], [ 127.1763137, 37.5739855 ], [ 127.1764052, 37.5739097 ], [ 127.1764946, 37.5738273 ], [ 127.1765806, 37.5737051 ], [ 127.1766403, 37.5736041 ], [ 127.1768191, 37.5734384 ], [ 127.1768508, 37.5734019 ], [ 127.1769678, 37.5732934 ], [ 127.1770426, 37.5731572 ], [ 127.1770455, 37.5731519 ], [ 127.1771093, 37.5730036 ], [ 127.1771259, 37.5729512 ], [ 127.1771343, 37.5729372 ], [ 127.1771865, 37.57285 ], [ 127.1772584, 37.5727672 ], [ 127.1773569, 37.5726335 ], [ 127.1773743, 37.5725924 ], [ 127.1773971, 37.5725384 ], [ 127.177462, 37.5724635 ], [ 127.1776084, 37.5723507 ], [ 127.1777368, 37.5722131 ], [ 127.1777897, 37.572139 ], [ 127.177832, 37.5720568 ], [ 127.1778549, 37.5719581 ], [ 127.1778763, 37.5718686 ], [ 127.1778726, 37.5718635 ], [ 127.1777943, 37.5717931 ], [ 127.1777949, 37.5717725 ], [ 127.1778249, 37.5715621 ], [ 127.1778393, 37.5714616 ], [ 127.1779411, 37.5712783 ], [ 127.1779819, 37.5711516 ], [ 127.177984, 37.5711485 ], [ 127.1780572, 37.5710653 ], [ 127.1780794, 37.5710402 ], [ 127.178179, 37.570927 ], [ 127.1782649, 37.5708058 ], [ 127.1782855, 37.5707691 ], [ 127.178321, 37.5707056 ], [ 127.1783253, 37.5706777 ], [ 127.1783312, 37.570639 ], [ 127.1783498, 37.5705171 ], [ 127.1783625, 37.570517 ], [ 127.1783806, 37.570429 ], [ 127.1783837, 37.5704133 ], [ 127.1784402, 37.5702586 ], [ 127.1784579, 37.5702537 ], [ 127.1784392, 37.5702588 ], [ 127.1785023, 37.5700859 ], [ 127.1785148, 37.5700597 ], [ 127.1785968, 37.5699102 ], [ 127.1786526, 37.5698085 ], [ 127.1786533, 37.5697862 ], [ 127.1786539, 37.5697678 ], [ 127.1786775, 37.5697392 ], [ 127.1787863, 37.5696073 ], [ 127.1789041, 37.5694727 ], [ 127.1790337, 37.5692798 ], [ 127.1790635, 37.5692361 ], [ 127.1791062, 37.5691662 ], [ 127.1791327, 37.5691228 ], [ 127.1791653, 37.5690424 ], [ 127.1791888, 37.5689844 ], [ 127.1792159, 37.5689174 ], [ 127.179232, 37.5687639 ], [ 127.1792583, 37.5685666 ], [ 127.1792609, 37.5685538 ], [ 127.1792804, 37.5684545 ], [ 127.1793296, 37.5682707 ], [ 127.1793312, 37.568265 ], [ 127.1793396, 37.5681364 ], [ 127.1793779, 37.567985 ], [ 127.1794161, 37.567873 ], [ 127.1794274, 37.5678398 ], [ 127.1794364, 37.5678135 ], [ 127.1794965, 37.5677298 ], [ 127.1794387, 37.5676001 ], [ 127.1794296, 37.5671717 ], [ 127.1794421, 37.5669074 ], [ 127.1794423, 37.5669025 ], [ 127.1794639, 37.5667649 ], [ 127.1794639, 37.5667589 ], [ 127.1794648, 37.5665744 ], [ 127.1794655, 37.5664378 ], [ 127.1794688, 37.5662694 ], [ 127.179474, 37.5662301 ], [ 127.1794829, 37.5661635 ], [ 127.1795124, 37.565836 ], [ 127.1795344, 37.5657728 ], [ 127.1795487, 37.5657088 ], [ 127.1795846, 37.5654951 ], [ 127.1796651, 37.5652786 ], [ 127.1797457, 37.5651274 ], [ 127.1797844, 37.5650545 ], [ 127.1799434, 37.5648507 ], [ 127.1801023, 37.5646941 ], [ 127.1801942, 37.564587 ], [ 127.1803751, 37.5642596 ], [ 127.1804144, 37.5641955 ], [ 127.1804572, 37.5641279 ], [ 127.1804999, 37.564067 ], [ 127.180523, 37.5640396 ], [ 127.1806249, 37.5639189 ], [ 127.1807558, 37.5636863 ], [ 127.180846, 37.5634684 ], [ 127.1809945, 37.563322 ], [ 127.1810149, 37.5632893 ], [ 127.1810477, 37.5632368 ], [ 127.1811856, 37.5630163 ], [ 127.181278, 37.5628295 ], [ 127.1813514, 37.5626196 ], [ 127.1813602, 37.5625945 ], [ 127.1813932, 37.562544 ], [ 127.1814124, 37.562492 ], [ 127.1814554, 37.5623759 ], [ 127.1815141, 37.5622667 ], [ 127.1815188, 37.5622084 ], [ 127.1815083, 37.5621567 ], [ 127.1815057, 37.5621441 ], [ 127.1815347, 37.5620803 ], [ 127.1815554, 37.5620167 ], [ 127.181585, 37.561955 ], [ 127.1816222, 37.5618133 ], [ 127.1816707, 37.5617336 ], [ 127.181755, 37.5614973 ], [ 127.1817558, 37.5614961 ], [ 127.1818013, 37.5614215 ], [ 127.1818843, 37.5612979 ], [ 127.1818848, 37.5612971 ], [ 127.181887, 37.5612939 ], [ 127.1819114, 37.561248 ], [ 127.1819992, 37.5609922 ], [ 127.1819814, 37.5608917 ], [ 127.1819785, 37.5608755 ], [ 127.181974, 37.5607208 ], [ 127.1820339, 37.5605063 ], [ 127.1820439, 37.5604032 ], [ 127.1820108, 37.5602269 ], [ 127.1820278, 37.5601524 ], [ 127.1820268, 37.5601065 ], [ 127.1820232, 37.5599386 ], [ 127.1820098, 37.5598326 ], [ 127.1820105, 37.5597886 ], [ 127.1819909, 37.5596353 ], [ 127.1818984, 37.5593365 ], [ 127.1818711, 37.5592639 ], [ 127.181884, 37.5591366 ], [ 127.181901, 37.5591397 ], [ 127.1818976, 37.5591315 ], [ 127.1818995, 37.5591387 ], [ 127.1818731, 37.5591296 ], [ 127.1818317, 37.55903 ], [ 127.1818136, 37.5589838 ], [ 127.18179, 37.5588297 ], [ 127.1817653, 37.558669 ], [ 127.1817628, 37.5586525 ], [ 127.1817701, 37.558443 ], [ 127.1817565, 37.5583785 ], [ 127.1817377, 37.5582516 ], [ 127.1816704, 37.5579756 ], [ 127.1816667, 37.5579126 ], [ 127.1816443, 37.5578555 ], [ 127.1815946, 37.5577196 ], [ 127.1815785, 37.5576432 ], [ 127.1815662, 37.5576007 ], [ 127.1815613, 37.5575713 ], [ 127.1815591, 37.5575579 ], [ 127.1815922, 37.5572217 ], [ 127.1816003, 37.5572082 ], [ 127.1816844, 37.5568335 ], [ 127.1816727, 37.5565606 ], [ 127.181665, 37.5564007 ], [ 127.1816964, 37.5563313 ], [ 127.1816974, 37.5559986 ], [ 127.181627, 37.5557542 ], [ 127.1815306, 37.5554771 ], [ 127.1815671, 37.5554612 ], [ 127.1815667, 37.5554562 ], [ 127.1814944, 37.5551566 ], [ 127.1814821, 37.5550245 ], [ 127.1814863, 37.5549477 ], [ 127.1814881, 37.5546935 ], [ 127.1814958, 37.5543303 ], [ 127.181451, 37.5537531 ], [ 127.1814272, 37.5535 ], [ 127.181375, 37.5532322 ], [ 127.1813362, 37.5530326 ], [ 127.181337, 37.5530295 ], [ 127.1813752, 37.5528676 ], [ 127.1815682, 37.5526537 ], [ 127.1816774, 37.5525701 ], [ 127.1821558, 37.5522729 ], [ 127.1823687, 37.5521354 ], [ 127.1829116, 37.5518198 ], [ 127.1831003, 37.5511512 ], [ 127.1831022, 37.5510482 ], [ 127.1831047, 37.5509081 ], [ 127.1831101, 37.5506115 ], [ 127.1830522, 37.5506326 ], [ 127.1830106, 37.5506033 ], [ 127.1829744, 37.5505055 ], [ 127.1829601, 37.5504407 ], [ 127.1829419, 37.5504094 ], [ 127.1829388, 37.5503799 ], [ 127.182924, 37.5502473 ], [ 127.1829073, 37.550178 ], [ 127.1829064, 37.5500124 ], [ 127.1829053, 37.5498985 ], [ 127.1829052, 37.5498339 ], [ 127.1829051, 37.5496326 ], [ 127.1828969, 37.5492681 ], [ 127.1829004, 37.54921 ], [ 127.1828987, 37.549188 ], [ 127.1829128, 37.5491905 ], [ 127.1829036, 37.5490722 ], [ 127.1829013, 37.5490023 ], [ 127.1828983, 37.5489107 ], [ 127.1828981, 37.5489045 ], [ 127.1828856, 37.5488418 ], [ 127.1828709, 37.5487826 ], [ 127.1828459, 37.548682 ], [ 127.1828276, 37.5485735 ], [ 127.1828271, 37.5485731 ], [ 127.1828, 37.548556 ], [ 127.1827829, 37.548455 ], [ 127.1827741, 37.5484084 ], [ 127.1827644, 37.5483693 ], [ 127.1827104, 37.5481523 ], [ 127.1827392, 37.5480583 ], [ 127.1826997, 37.5478867 ], [ 127.1826771, 37.5478574 ], [ 127.1826788, 37.5477207 ], [ 127.1826798, 37.5476328 ], [ 127.1826801, 37.5476179 ], [ 127.1826799, 37.5475822 ], [ 127.1826799, 37.5475715 ], [ 127.1826694, 37.5475134 ], [ 127.1826881, 37.5474903 ], [ 127.1826997, 37.5474741 ], [ 127.1827051, 37.5474651 ], [ 127.1827333, 37.5473957 ], [ 127.1827357, 37.5473143 ], [ 127.1827371, 37.5472397 ], [ 127.1827392, 37.5470595 ], [ 127.1827408, 37.5469421 ], [ 127.1827389, 37.546919 ], [ 127.1827473, 37.5468832 ], [ 127.1827541, 37.5468605 ], [ 127.1827645, 37.5468263 ], [ 127.1827706, 37.5467418 ], [ 127.182702, 37.5466879 ], [ 127.1827124, 37.546449 ], [ 127.1827652, 37.5463384 ], [ 127.1829989, 37.5461348 ], [ 127.1837702, 37.5455456 ], [ 127.1836101, 37.5452649 ], [ 127.183567, 37.5451765 ], [ 127.1835636, 37.5451679 ], [ 127.1830779, 37.5453946 ], [ 127.1828067, 37.5456069 ], [ 127.1827028, 37.5455156 ], [ 127.1824395, 37.5456114 ], [ 127.1821922, 37.545743 ], [ 127.1819299, 37.5461604 ], [ 127.1816588, 37.5464443 ], [ 127.181258, 37.5465926 ], [ 127.1811943, 37.5466162 ], [ 127.1798434, 37.5466055 ], [ 127.1797568, 37.5466172 ], [ 127.1793422, 37.5466733 ], [ 127.1793088, 37.5466816 ], [ 127.1788477, 37.5465136 ], [ 127.1782879, 37.5463158 ], [ 127.1782712, 37.5462978 ], [ 127.1776625, 37.5460719 ], [ 127.1774201, 37.5459808 ], [ 127.1772979, 37.5459349 ], [ 127.1772423, 37.5459144 ], [ 127.1767928, 37.5457456 ], [ 127.1767905, 37.5457195 ], [ 127.1767921, 37.5455817 ], [ 127.1767944, 37.5455283 ], [ 127.1767957, 37.5454853 ], [ 127.1767882, 37.5454275 ], [ 127.1767614, 37.5453904 ], [ 127.1767418, 37.5453631 ], [ 127.1766835, 37.5453439 ], [ 127.1766419, 37.5453308 ], [ 127.1765899, 37.545327 ], [ 127.1764932, 37.5453763 ], [ 127.1764759, 37.545385 ], [ 127.1763808, 37.5454505 ], [ 127.1763405, 37.5454797 ], [ 127.176279, 37.5455255 ], [ 127.1761916, 37.545577 ], [ 127.1760894, 37.5456124 ], [ 127.1760299, 37.5456264 ], [ 127.1759793, 37.5456298 ], [ 127.1759492, 37.5456078 ], [ 127.1758538, 37.5455062 ], [ 127.1757729, 37.5454014 ], [ 127.175751, 37.5453315 ], [ 127.1757455, 37.5452877 ], [ 127.175718, 37.5452104 ], [ 127.1756436, 37.5452313 ], [ 127.1754769, 37.5452422 ], [ 127.1753953, 37.5452037 ], [ 127.1748021, 37.5452738 ], [ 127.1746325, 37.545259 ], [ 127.1743115, 37.5452969 ], [ 127.1742157, 37.5454024 ], [ 127.1741836, 37.5455213 ], [ 127.1741373, 37.5457114 ], [ 127.1740425, 37.5456626 ], [ 127.1739052, 37.545592 ], [ 127.173882, 37.545577 ], [ 127.1736112, 37.5455395 ], [ 127.173395, 37.5455694 ], [ 127.1732069, 37.5455657 ], [ 127.1730683, 37.5455504 ], [ 127.1724831, 37.5455185 ], [ 127.1721123, 37.5455292 ], [ 127.1718375, 37.5454423 ], [ 127.1717903, 37.5454274 ], [ 127.1715663, 37.5453802 ], [ 127.1715592, 37.5453693 ], [ 127.1715167, 37.545305 ], [ 127.171447, 37.5452752 ], [ 127.1710661, 37.5451121 ], [ 127.1707524, 37.5450386 ], [ 127.1703626, 37.5448951 ], [ 127.1699838, 37.5448207 ], [ 127.1697604, 37.5447962 ], [ 127.1696183, 37.5448187 ], [ 127.1693883, 37.5448872 ], [ 127.1692501, 37.5449479 ], [ 127.1691674, 37.5449843 ], [ 127.168815, 37.5451392 ], [ 127.1682479, 37.5451062 ], [ 127.1681649, 37.5450752 ], [ 127.1679794, 37.5450526 ], [ 127.1679235, 37.5450578 ], [ 127.1675955, 37.545088 ], [ 127.1675718, 37.5450967 ], [ 127.1674276, 37.5451493 ], [ 127.167305, 37.5451939 ], [ 127.167141, 37.5452089 ], [ 127.1670777, 37.5452149 ], [ 127.166985, 37.5452016 ], [ 127.1668947, 37.5451259 ], [ 127.1668529, 37.5450365 ], [ 127.1668452, 37.544822 ], [ 127.1668479, 37.5447141 ], [ 127.1668497, 37.5446287 ], [ 127.1668457, 37.544566 ], [ 127.1668299, 37.5445282 ], [ 127.1667987, 37.5444792 ], [ 127.1666538, 37.5444256 ], [ 127.1665049, 37.5443667 ], [ 127.1663306, 37.5443038 ], [ 127.1662853, 37.5443107 ], [ 127.1662688, 37.5443118 ], [ 127.166201, 37.544316 ], [ 127.1658147, 37.5443403 ], [ 127.1658034, 37.544341 ], [ 127.1657661, 37.5443433 ], [ 127.1657103, 37.5443395 ], [ 127.1656496, 37.5443459 ], [ 127.165513, 37.54437 ], [ 127.1653109, 37.5444056 ], [ 127.1651992, 37.5444898 ], [ 127.1652053, 37.5445787 ], [ 127.1651704, 37.544639 ], [ 127.1649021, 37.5446921 ], [ 127.1647316, 37.5446916 ], [ 127.1645956, 37.5447282 ], [ 127.1644855, 37.5448054 ], [ 127.1643911, 37.5448437 ], [ 127.1642378, 37.5448286 ], [ 127.1640649, 37.5448962 ], [ 127.1639526, 37.5448961 ], [ 127.163713, 37.5449421 ], [ 127.1635926, 37.5449824 ], [ 127.1634913, 37.545016 ], [ 127.1632922, 37.5450171 ], [ 127.1632353, 37.5450093 ], [ 127.1631739, 37.5449903 ], [ 127.1631595, 37.5449999 ], [ 127.162979, 37.5447972 ], [ 127.1629144, 37.5447075 ], [ 127.162817, 37.5445791 ], [ 127.162822, 37.5445676 ], [ 127.16282, 37.5445588 ], [ 127.1627442, 37.5444738 ], [ 127.1627349, 37.5444776 ], [ 127.1627338, 37.544476 ], [ 127.1627232, 37.5444613 ], [ 127.1626851, 37.544401 ], [ 127.1626323, 37.5443161 ], [ 127.162551, 37.5441918 ], [ 127.1625358, 37.5441506 ], [ 127.1624579, 37.5440624 ], [ 127.162394, 37.5440057 ], [ 127.1622773, 37.5438515 ], [ 127.1622665, 37.5438316 ], [ 127.1622299, 37.5438092 ], [ 127.1621433, 37.5437595 ], [ 127.1620924, 37.54372 ], [ 127.1620365, 37.5436716 ], [ 127.1619942, 37.5436393 ], [ 127.1618863, 37.5435604 ], [ 127.1618522, 37.5435279 ], [ 127.1617573, 37.5434579 ], [ 127.161714, 37.5434185 ], [ 127.1616636, 37.5433589 ], [ 127.1615529, 37.5432345 ], [ 127.161528, 37.5432053 ], [ 127.1614803, 37.5431279 ], [ 127.1614002, 37.5430054 ], [ 127.1613135, 37.5429574 ], [ 127.1611611, 37.5427972 ], [ 127.1611051, 37.5427186 ], [ 127.1609704, 37.5425716 ], [ 127.1609134, 37.5425024 ], [ 127.1608905, 37.5424585 ], [ 127.1608707, 37.5424253 ], [ 127.1608521, 37.5423939 ], [ 127.1608236, 37.5423365 ], [ 127.160798, 37.54225 ], [ 127.1607695, 37.5421883 ], [ 127.1607288, 37.542133 ], [ 127.1606907, 37.5421022 ], [ 127.1606438, 37.5420463 ], [ 127.1605677, 37.5419576 ], [ 127.1605024, 37.5418487 ], [ 127.1604571, 37.5417748 ], [ 127.1604065, 37.5417022 ], [ 127.1602566, 37.5415823 ], [ 127.1600772, 37.5414323 ], [ 127.159958, 37.5413307 ], [ 127.15992, 37.5412391 ], [ 127.1598933, 37.5411651 ], [ 127.1598269, 37.5411195 ], [ 127.1597724, 37.5410889 ], [ 127.1595727, 37.5409872 ], [ 127.1593283, 37.5408743 ], [ 127.1593044, 37.5408632 ], [ 127.1592567, 37.5408144 ], [ 127.1591012, 37.5407259 ], [ 127.1590787, 37.5406876 ], [ 127.1589592, 37.5404842 ], [ 127.1584512, 37.540003 ], [ 127.1582469, 37.53975 ], [ 127.1581699, 37.5396896 ], [ 127.1579712, 37.5395338 ], [ 127.1576512, 37.5392702 ], [ 127.1573954, 37.5389518 ], [ 127.157315, 37.5386981 ], [ 127.1571744, 37.5384413 ], [ 127.1569406, 37.5383711 ], [ 127.1569411, 37.5379671 ], [ 127.1568933, 37.5378352 ], [ 127.1568693, 37.5377968 ], [ 127.1567886, 37.5376586 ], [ 127.1567118, 37.5375781 ], [ 127.1565403, 37.5374467 ], [ 127.1565036, 37.5374513 ], [ 127.156375, 37.5374021 ], [ 127.1563381, 37.5373699 ], [ 127.1560325, 37.5373427 ], [ 127.15594, 37.5370596 ], [ 127.1556965, 37.5367507 ], [ 127.1552614, 37.5362161 ], [ 127.1552285, 37.5361367 ], [ 127.1551916, 37.5360573 ], [ 127.1550485, 37.5357497 ], [ 127.155011, 37.5356697 ], [ 127.154865, 37.5353586 ], [ 127.1545258, 37.5348693 ], [ 127.1543353, 37.5347356 ], [ 127.1542788, 37.5346959 ], [ 127.1540212, 37.534515 ], [ 127.1538756, 37.5341943 ], [ 127.1537874, 37.5339999 ], [ 127.1537546, 37.5339598 ], [ 127.1535919, 37.5337609 ], [ 127.1535371, 37.5336939 ], [ 127.1535421, 37.5336747 ], [ 127.1537566, 37.5328552 ], [ 127.1538019, 37.5326625 ], [ 127.1538482, 37.5324006 ], [ 127.1539333, 37.5319199 ], [ 127.1537248, 37.5315623 ], [ 127.1536179, 37.5314841 ], [ 127.1533787, 37.5313301 ], [ 127.1533271, 37.5310339 ], [ 127.1534339, 37.5309133 ], [ 127.153541, 37.5304365 ], [ 127.1531287, 37.5299482 ], [ 127.15329, 37.529469 ], [ 127.1532321, 37.5292374 ], [ 127.1531636, 37.5291091 ], [ 127.1527789, 37.5288025 ], [ 127.1526867, 37.5285295 ], [ 127.1523483, 37.528278 ], [ 127.1516373, 37.5277048 ], [ 127.1513558, 37.5274135 ], [ 127.1507824, 37.5268571 ], [ 127.1507258, 37.5267895 ], [ 127.1504017, 37.5263728 ], [ 127.1498686, 37.5262078 ], [ 127.149479, 37.5257785 ], [ 127.149455, 37.5257509 ], [ 127.1495853, 37.5253322 ], [ 127.1495957, 37.5252937 ], [ 127.149476, 37.5250206 ], [ 127.1492355, 37.52483 ], [ 127.1492082, 37.5247638 ], [ 127.1490252, 37.5243336 ], [ 127.1490221, 37.5242219 ], [ 127.1490086, 37.5241199 ], [ 127.1485953, 37.5235611 ], [ 127.1485981, 37.5231918 ], [ 127.1481789, 37.5229223 ], [ 127.1478293, 37.5223925 ], [ 127.1477972, 37.52215 ], [ 127.1459322, 37.5219562 ], [ 127.1457801, 37.5219418 ], [ 127.1457688, 37.5219407 ], [ 127.1456663, 37.5219369 ], [ 127.1456423, 37.5215814 ], [ 127.1456415, 37.5215797 ], [ 127.1455895, 37.5214789 ], [ 127.145543, 37.5213898 ], [ 127.1455091, 37.5213336 ], [ 127.1454862, 37.5213078 ], [ 127.1454376, 37.5212324 ], [ 127.145414, 37.521168 ], [ 127.1453897, 37.5211051 ], [ 127.1453397, 37.5210242 ], [ 127.1452709, 37.5208794 ], [ 127.1452494, 37.5208117 ], [ 127.1452388, 37.5207538 ], [ 127.1451943, 37.5206701 ], [ 127.1451471, 37.52056 ], [ 127.1451311, 37.5205165 ], [ 127.145122, 37.5204746 ], [ 127.1451115, 37.5204245 ], [ 127.1450774, 37.5203044 ], [ 127.1450565, 37.520272 ], [ 127.1450087, 37.5202009 ], [ 127.1449774, 37.5201354 ], [ 127.1449504, 37.5200715 ], [ 127.1449142, 37.5199718 ], [ 127.144885, 37.5198958 ], [ 127.144844, 37.5197869 ], [ 127.1448043, 37.5196745 ], [ 127.1447856, 37.5196245 ], [ 127.1448007, 37.5195913 ], [ 127.1447923, 37.5195688 ], [ 127.1448027, 37.5195319 ], [ 127.1447867, 37.519479 ], [ 127.1447976, 37.5194338 ], [ 127.1448004, 37.5193898 ], [ 127.1448264, 37.5192543 ], [ 127.1448296, 37.5191447 ], [ 127.1448413, 37.5191111 ], [ 127.1448374, 37.5188677 ], [ 127.1448047, 37.5187747 ], [ 127.1448624, 37.5186066 ], [ 127.1448844, 37.5185024 ], [ 127.1449021, 37.5183901 ], [ 127.1448862, 37.5183664 ], [ 127.1448749, 37.5182436 ], [ 127.1448697, 37.5181313 ], [ 127.144827, 37.5179737 ], [ 127.1448553, 37.5177476 ], [ 127.144913, 37.5175874 ], [ 127.1449688, 37.5174125 ], [ 127.145011, 37.5173118 ], [ 127.1450727, 37.5171674 ], [ 127.1450827, 37.5171441 ], [ 127.1450714, 37.5170818 ], [ 127.1450722, 37.5169569 ], [ 127.1450935, 37.5168722 ], [ 127.1450806, 37.5168724 ], [ 127.1450873, 37.5168492 ], [ 127.1451059, 37.5167892 ], [ 127.1452612, 37.5166347 ], [ 127.1453225, 37.5165976 ], [ 127.1454306, 37.5164232 ], [ 127.1454398, 37.5163202 ], [ 127.145426, 37.5161346 ], [ 127.1454334, 37.5160615 ], [ 127.1451909, 37.5159235 ], [ 127.1451036, 37.515896 ], [ 127.1450182, 37.5158514 ], [ 127.1449404, 37.5157691 ], [ 127.1448951, 37.5157015 ], [ 127.1448493, 37.5156703 ], [ 127.1446173, 37.515597 ], [ 127.1446078, 37.5155915 ], [ 127.1444384, 37.5155988 ], [ 127.1442893, 37.515613 ], [ 127.1441063, 37.5156191 ], [ 127.1439759, 37.5156138 ], [ 127.1438762, 37.5156284 ], [ 127.1433709, 37.5155645 ], [ 127.1430411, 37.5155843 ], [ 127.1428869, 37.5155893 ], [ 127.1426195, 37.5155716 ], [ 127.1424215, 37.5156068 ], [ 127.1421313, 37.5156419 ], [ 127.1420539, 37.5156227 ], [ 127.1418269, 37.5156427 ], [ 127.1417431, 37.515634 ], [ 127.1416984, 37.5155856 ], [ 127.1411848, 37.515535 ], [ 127.140796, 37.515563 ], [ 127.1406172, 37.5155756 ], [ 127.1406316, 37.5155385 ], [ 127.1407474, 37.5154478 ], [ 127.1409729, 37.5152766 ], [ 127.1411834, 37.5150949 ], [ 127.1412309, 37.5150309 ], [ 127.1413729, 37.5149709 ], [ 127.1415446, 37.514934 ], [ 127.1416704, 37.5148884 ], [ 127.1417713, 37.5148097 ], [ 127.1418164, 37.5147878 ], [ 127.1420235, 37.5147051 ], [ 127.142135, 37.514643 ], [ 127.1422083, 37.5145718 ], [ 127.1425761, 37.5143665 ], [ 127.1425996, 37.5143666 ], [ 127.1426551, 37.5143353 ], [ 127.1427104, 37.5142708 ], [ 127.142729, 37.5142516 ], [ 127.1427323, 37.514248 ], [ 127.1428182, 37.5141942 ], [ 127.1428589, 37.5141687 ], [ 127.1429502, 37.5140891 ], [ 127.1430414, 37.5140364 ], [ 127.1431758, 37.513974 ], [ 127.1433373, 37.5139068 ], [ 127.1434345, 37.51389 ], [ 127.1433983, 37.5138691 ], [ 127.1434031, 37.5137199 ], [ 127.1434032, 37.5137174 ], [ 127.1434044, 37.5137139 ], [ 127.143435, 37.5136216 ], [ 127.1434315, 37.5135714 ], [ 127.1433804, 37.5135154 ], [ 127.1433662, 37.5134474 ], [ 127.1434329, 37.5132176 ], [ 127.1434177, 37.5131358 ], [ 127.1434693, 37.5130622 ], [ 127.1434818, 37.5128934 ], [ 127.1435398, 37.5126573 ], [ 127.1435123, 37.5126606 ], [ 127.1434233, 37.5126713 ], [ 127.1429091, 37.51273 ], [ 127.1426984, 37.5126967 ], [ 127.1426173, 37.5126561 ], [ 127.1424129, 37.5125907 ], [ 127.1422688, 37.5125446 ], [ 127.1422249, 37.5125306 ], [ 127.1421853, 37.5125254 ], [ 127.1421162, 37.5125164 ], [ 127.1420807, 37.5125117 ], [ 127.1419132, 37.5124585 ], [ 127.1415327, 37.5124247 ], [ 127.1414354, 37.5124016 ], [ 127.1413944, 37.5123634 ], [ 127.1412752, 37.5121552 ], [ 127.1412507, 37.5118421 ], [ 127.1412418, 37.5117348 ], [ 127.1412373, 37.511681 ], [ 127.1411911, 37.5115072 ], [ 127.1411635, 37.5113255 ], [ 127.1411536, 37.5112583 ], [ 127.1411154, 37.5111509 ], [ 127.1411041, 37.5111193 ], [ 127.1411252, 37.5110787 ], [ 127.1412206, 37.5110427 ], [ 127.1412205, 37.5109924 ], [ 127.141242, 37.510995 ], [ 127.1412387, 37.5108357 ], [ 127.1412239, 37.5107848 ], [ 127.141212, 37.5107613 ], [ 127.1411836, 37.5107613 ], [ 127.1409476, 37.5103936 ], [ 127.1407322, 37.5103495 ], [ 127.1406674, 37.5103198 ], [ 127.1405764, 37.5102614 ], [ 127.1404544, 37.5102244 ], [ 127.1403491, 37.5102168 ], [ 127.1403511, 37.5102058 ], [ 127.140362, 37.5101471 ], [ 127.1403717, 37.5100945 ], [ 127.1403644, 37.5100433 ], [ 127.1402845, 37.5099142 ], [ 127.1402468, 37.5098531 ], [ 127.1402498, 37.509673 ], [ 127.1402506, 37.5096236 ], [ 127.1402391, 37.5095049 ], [ 127.1402144, 37.5093917 ], [ 127.1401815, 37.5092991 ], [ 127.1401824, 37.5092334 ], [ 127.140163, 37.5091596 ], [ 127.1401464, 37.5091009 ], [ 127.1401254, 37.5090982 ], [ 127.1401263, 37.5090668 ], [ 127.140125, 37.5090368 ], [ 127.1401073, 37.5090054 ], [ 127.1400889, 37.5089824 ], [ 127.1400361, 37.5088114 ], [ 127.1400132, 37.5087253 ], [ 127.1399904, 37.5086678 ], [ 127.139952, 37.5085171 ] ] ] } }
]
}
